[{"OBJECT_NAME":"STARLINK-34809","OBJECT_ID":"2025-165P","EPOCH":"2026-03-09T17:17:32.677440","MEAN_MOTION":15.05641231,"ECCENTRICITY":0.00014451,"INCLINATION":97.6018,"RA_OF_ASC_NODE":147.2388,"ARG_OF_PERICENTER":90.5075,"MEAN_ANOMALY":269.6317,"EPHEMERIS_TYPE":0,"CLASSIFICATION_TYPE":"U","NORAD_CAT_ID":65069,"ELEMENT_SET_NO":999,"REV_AT_EPOCH":3479,"BSTAR":0.00029193713,"MEAN_MOTION_DOT":4.153e-5,"MEAN_MOTION_DDOT":0},{"OBJECT_NAME":"COSMOS 1275 DEB","OBJECT_ID":"1981-053RH","EPOCH":"2026-03-08T19:02:02.535360","MEAN_MOTION":15.08606043,"ECCENTRICITY":0.00097404,"INCLINATION":83.3308,"RA_OF_ASC_NODE":196.5935,"ARG_OF_PERICENTER":282.896,"MEAN_ANOMALY":77.1182,"EPHEMERIS_TYPE":0,"CLASSIFICATION_TYPE":"U","NORAD_CAT_ID":42145,"ELEMENT_SET_NO":999,"REV_AT_EPOCH":64889,"BSTAR":0.0090120528,"MEAN_MOTION_DOT":0.00143721,"MEAN_MOTION_DDOT":0}]
